BEIDOU-3 M25 (C47)      
1 61186U 24168B   25321.63426971 -.00000083  00000+0  00000+0 0  9994
2 61186  54.6643 309.5897 0005521 290.9842 251.9619  1.86230295  7848
BEIDOU-3 M27 (C49)      
1 61187U 24168C   25321.43469770 -.00000083  00000+0  00000+0 0  9997
2 61187  54.6598 309.5802 0002137 323.4144 220.6581  1.86230410  5311
