[
    {
        "OBJECT_NAME": "BEIDOU-3 M25 (C47)",
        "OBJECT_ID": "2024-168B",
        "EPOCH": "2025-11-17T15:13:20.902944",
        "MEAN_MOTION": 1.86230295,
        "ECCENTRICITY": 0.0005521,
        "INCLINATION": 54.6643,
        "RA_OF_ASC_NODE": 309.5897,
        "ARG_OF_PERICENTER": 290.9842,
        "MEAN_ANOMALY": 251.9619,
        "EPHEMERIS_TYPE": 0,
        "CLASSIFICATION_TYPE": "U",
        "NORAD_CAT_ID": 61186,
        "ELEMENT_SET_NO": 999,
        "REV_AT_EPOCH": 784,
        "BSTAR": 0,
        "MEAN_MOTION_DOT": -8.3e-7,
        "MEAN_MOTION_DDOT": 0
    },
    {
        "OBJECT_NAME": "BEIDOU-3 M27 (C49)",
        "OBJECT_ID": "2024-168C",
        "EPOCH": "2025-11-17T10:25:57.881280",
        "MEAN_MOTION": 1.8623041,
        "ECCENTRICITY": 0.00021376,
        "INCLINATION": 54.6598,
        "RA_OF_ASC_NODE": 309.5802,
        "ARG_OF_PERICENTER": 323.4144,
        "MEAN_ANOMALY": 220.6581,
        "EPHEMERIS_TYPE": 0,
        "CLASSIFICATION_TYPE": "U",
        "NORAD_CAT_ID": 61187,
        "ELEMENT_SET_NO": 999,
        "REV_AT_EPOCH": 531,
        "BSTAR": 0,
        "MEAN_MOTION_DOT": -8.3e-7,
        "MEAN_MOTION_DDOT": 0
    }
]